{
  "type": "FeatureCollection",
  "features": [
    {
      "type": "Feature",
      "properties": {
        "name": "Oba Mahallesi",
        "source": "OpenStreetMap",
        "osm_relation": 6002883
      },
      "geometry": {
        "type": "Polygon",
        "coordinates": [
          [
            [
              32.0324198,
              36.5351692
            ],
            [
              32.0325861,
              36.535419
            ],
            [
              32.0327601,
              36.5356462
            ],
            [
              32.0328659,
              36.535752
            ],
            [
              32.0329715,
              36.536084
            ],
            [
              32.0328329,
              36.5363117
            ],
            [
              32.0325735,
              36.5365998
            ],
            [
              32.0324074,
              36.537019
            ],
            [
              32.0323405,
              36.5373585
            ],
            [
              32.0322653,
              36.5377687
            ],
            [
              32.0322101,
              36.5380556
            ],
            [
              32.0322699,
              36.5382621
            ],
            [
              32.0324317,
              36.5384945
            ],
            [
              32.0333824,
              36.5394535
            ],
            [
              32.0337084,
              36.5398585
            ],
            [
              32.0343295,
              36.5406052
            ],
            [
              32.0346237,
              36.5408003
            ],
            [
              32.0349295,
              36.5410175
            ],
            [
              32.0356733,
              36.5413729
            ],
            [
              32.0360155,
              36.541566
            ],
            [
              32.0364878,
              36.5416856
            ],
            [
              32.037353,
              36.541749
            ],
            [
              32.0371244,
              36.542015
            ],
            [
              32.037066,
              36.5420934
            ],
            [
              32.037201,
              36.5421625
            ],
            [
              32.0372749,
              36.5423011
            ],
            [
              32.0372872,
              36.5425387
            ],
            [
              32.0372379,
              36.5428655
            ],
            [
              32.0371517,
              36.5432913
            ],
            [
              32.0371459,
              36.5439577
            ],
            [
              32.0375091,
              36.543933
            ],
            [
              32.0379281,
              36.5440141
            ],
            [
              32.0386922,
              36.5446081
            ],
            [
              32.0400602,
              36.5455586
            ],
            [
              32.0399493,
              36.5458656
            ],
            [
              32.039826,
              36.5460636
            ],
            [
              32.0399123,
              36.5462319
            ],
            [
              32.0400972,
              36.5463705
            ],
            [
              32.0404176,
              36.5466378
            ],
            [
              32.0406025,
              36.5468062
            ],
            [
              32.0407873,
              36.5468854
            ],
            [
              32.0408982,
              36.5470537
            ],
            [
              32.0410691,
              36.5472268
            ],
            [
              32.0410944,
              36.5473648
            ],
            [
              32.0412781,
              36.5475473
            ],
            [
              32.0411296,
              36.5480345
            ],
            [
              32.0408157,
              36.5483909
            ],
            [
              32.040688,
              36.5484762
            ],
            [
              32.0404828,
              36.5486537
            ],
            [
              32.0398882,
              36.5493121
            ],
            [
              32.0398171,
              36.5498821
            ],
            [
              32.0405481,
              36.5497791
            ],
            [
              32.041778,
              36.5494844
            ],
            [
              32.0420312,
              36.5495149
            ],
            [
              32.0422475,
              36.549491
            ],
            [
              32.0426593,
              36.5495965
            ],
            [
              32.0427746,
              36.5496261
            ],
            [
              32.0433571,
              36.5495427
            ],
            [
              32.0436268,
              36.5495166
            ],
            [
              32.0438964,
              36.5494706
            ],
            [
              32.0443439,
              36.5495119
            ],
            [
              32.0447547,
              36.5497563
            ],
            [
              32.0451411,
              36.5501042
            ],
            [
              32.0456469,
              36.5505692
            ],
            [
              32.0459723,
              36.5507069
            ],
            [
              32.0458312,
              36.551014
            ],
            [
              32.0456946,
              36.5510793
            ],
            [
              32.0455808,
              36.5512825
            ],
            [
              32.0456562,
              36.5513423
            ],
            [
              32.0458754,
              36.5513175
            ],
            [
              32.0469133,
              36.5516421
            ],
            [
              32.0471347,
              36.5518578
            ],
            [
              32.0473134,
              36.5520039
            ],
            [
              32.0471515,
              36.5521969
            ],
            [
              32.0468763,
              36.5523353
            ],
            [
              32.046753,
              36.5523285
            ],
            [
              32.0464998,
              36.5523823
            ],
            [
              32.0465234,
              36.5525644
            ],
            [
              32.0464933,
              36.5528068
            ],
            [
              32.0471975,
              36.5531527
            ],
            [
              32.0474592,
              36.553179
            ],
            [
              32.0475888,
              36.5532621
            ],
            [
              32.0475937,
              36.5532683
            ],
            [
              32.0478643,
              36.5536116
            ],
            [
              32.0484114,
              36.5540006
            ],
            [
              32.0486336,
              36.5541357
            ],
            [
              32.0488126,
              36.5543918
            ],
            [
              32.0489188,
              36.5545764
            ],
            [
              32.0488802,
              36.5547446
            ],
            [
              32.0490267,
              36.5550733
            ],
            [
              32.0489441,
              36.5551824
            ],
            [
              32.0492562,
              36.5553901
            ],
            [
              32.049357,
              36.5551613
            ],
            [
              32.0497705,
              36.5545943
            ],
            [
              32.049909,
              36.5543035
            ],
            [
              32.0500611,
              36.5538988
            ],
            [
              32.0503153,
              36.5537388
            ],
            [
              32.0505609,
              36.5537606
            ],
            [
              32.0508982,
              36.5538238
            ],
            [
              32.0511856,
              36.5537191
            ],
            [
              32.0518701,
              36.5542135
            ],
            [
              32.0523634,
              36.5544877
            ],
            [
              32.0530038,
              36.5544989
            ],
            [
              32.0540188,
              36.5544229
            ],
            [
              32.0545205,
              36.5548794
            ],
            [
              32.0547609,
              36.5550388
            ],
            [
              32.0544542,
              36.5554285
            ],
            [
              32.0541636,
              36.5559221
            ],
            [
              32.0539985,
              36.55608
            ],
            [
              32.0542207,
              36.5565929
            ],
            [
              32.0549292,
              36.5566014
            ],
            [
              32.0553062,
              36.5565063
            ],
            [
              32.0553549,
              36.5562776
            ],
            [
              32.0562234,
              36.5570294
            ],
            [
              32.0563892,
              36.5575908
            ],
            [
              32.0564585,
              36.5577866
            ],
            [
              32.0568174,
              36.5578578
            ],
            [
              32.0569516,
              36.5580962
            ],
            [
              32.0570283,
              36.5583933
            ],
            [
              32.0571587,
              36.5592961
            ],
            [
              32.0573603,
              36.559939
            ],
            [
              32.0581534,
              36.5604491
            ],
            [
              32.0581468,
              36.5608137
            ],
            [
              32.0581117,
              36.5614827
            ],
            [
              32.0581588,
              36.5619087
            ],
            [
              32.0583122,
              36.5621718
            ],
            [
              32.0586868,
              36.5623801
            ],
            [
              32.058939,
              36.5626762
            ],
            [
              32.0592574,
              36.5633728
            ],
            [
              32.0593322,
              36.5641177
            ],
            [
              32.0593809,
              36.564775
            ],
            [
              32.0596659,
              36.5652138
            ],
            [
              32.060062,
              36.5656395
            ],
            [
              32.0602113,
              36.5659273
            ],
            [
              32.0603383,
              36.5665029
            ],
            [
              32.0605858,
              36.5671142
            ],
            [
              32.0604153,
              36.5673863
            ],
            [
              32.0600731,
              36.5677533
            ],
            [
              32.0600083,
              36.5680159
            ],
            [
              32.0600128,
              36.5684149
            ],
            [
              32.0598054,
              36.5690467
            ],
            [
              32.0578429,
              36.5723431
            ],
            [
              32.0570295,
              36.5726499
            ],
            [
              32.056709,
              36.5730953
            ],
            [
              32.0540347,
              36.5742434
            ],
            [
              32.0538991,
              36.5746591
            ],
            [
              32.0533938,
              36.57458
            ],
            [
              32.0529009,
              36.5750055
            ],
            [
              32.0512741,
              36.5756291
            ],
            [
              32.0502265,
              36.5758567
            ],
            [
              32.0489104,
              36.578263
            ],
            [
              32.0486525,
              36.578707
            ],
            [
              32.0476991,
              36.580105
            ],
            [
              32.047522,
              36.5809738
            ],
            [
              32.0483039,
              36.5810228
            ],
            [
              32.0494008,
              36.5820323
            ],
            [
              32.0511385,
              36.5820521
            ],
            [
              32.0523093,
              36.5817849
            ],
            [
              32.0530611,
              36.581013
            ],
            [
              32.0527406,
              36.5807952
            ],
            [
              32.0518656,
              36.5803895
            ],
            [
              32.0517177,
              36.580528
            ],
            [
              32.0517424,
              36.5799441
            ],
            [
              32.0515945,
              36.5796571
            ],
            [
              32.0523956,
              36.5799936
            ],
            [
              32.0524325,
              36.5796076
            ],
            [
              32.0525065,
              36.5794889
            ],
            [
              32.0528269,
              36.5793503
            ],
            [
              32.0528392,
              36.5794295
            ],
            [
              32.0532706,
              36.5798748
            ],
            [
              32.0548481,
              36.57842
            ],
            [
              32.0544907,
              36.5776481
            ],
            [
              32.0543305,
              36.5775788
            ],
            [
              32.055378,
              36.5773907
            ],
            [
              32.0561175,
              36.5775194
            ],
            [
              32.0567214,
              36.5777074
            ],
            [
              32.0582865,
              36.5786575
            ],
            [
              32.0585823,
              36.5786773
            ],
            [
              32.0588165,
              36.578519
            ],
            [
              32.0588781,
              36.5781132
            ],
            [
              32.0587425,
              36.5777569
            ],
            [
              32.0588411,
              36.5773512
            ],
            [
              32.0589644,
              36.577272
            ],
            [
              32.0596299,
              36.5772423
            ],
            [
              32.0597531,
              36.5772819
            ],
            [
              32.0605419,
              36.5772324
            ],
            [
              32.0597778,
              36.5762922
            ],
            [
              32.0596915,
              36.5762328
            ],
            [
              32.0596175,
              36.5755796
            ],
            [
              32.0592108,
              36.5749857
            ],
            [
              32.0588658,
              36.5747482
            ],
            [
              32.0587795,
              36.574481
            ],
            [
              32.0588658,
              36.5740752
            ],
            [
              32.0588781,
              36.5736991
            ],
            [
              32.0587179,
              36.573323
            ],
            [
              32.0582249,
              36.5729568
            ],
            [
              32.0579538,
              36.5724817
            ],
            [
              32.059938,
              36.5691461
            ],
            [
              32.0608007,
              36.568968
            ],
            [
              32.0609244,
              36.5686545
            ],
            [
              32.0613229,
              36.568616
            ],
            [
              32.0630228,
              36.5676683
            ],
            [
              32.0630929,
              36.5678375
            ],
            [
              32.0643754,
              36.5674278
            ],
            [
              32.064581,
              36.5682081
            ],
            [
              32.0647456,
              36.5683874
            ],
            [
              32.0648411,
              36.5683744
            ],
            [
              32.0651523,
              36.568565
            ],
            [
              32.0657862,
              36.5685276
            ],
            [
              32.0674961,
              36.5673645
            ],
            [
              32.0677428,
              36.5675149
            ],
            [
              32.0686447,
              36.5673764
            ],
            [
              32.0686408,
              36.5671889
            ],
            [
              32.0685142,
              36.5671368
            ],
            [
              32.0686013,
              36.5670559
            ],
            [
              32.0682672,
              36.566512
            ],
            [
              32.0680471,
              36.5661597
            ],
            [
              32.067718,
              36.5663252
            ],
            [
              32.0671696,
              36.5664821
            ],
            [
              32.0670728,
              36.5664067
            ],
            [
              32.0675895,
              36.5659477
            ],
            [
              32.06769,
              36.5657044
            ],
            [
              32.0680427,
              36.5658339
            ],
            [
              32.0686086,
              36.565563
            ],
            [
              32.0693416,
              36.5653984
            ],
            [
              32.0695194,
              36.5657513
            ],
            [
              32.0693684,
              36.5659623
            ],
            [
              32.0692359,
              36.5660198
            ],
            [
              32.0692875,
              36.5660765
            ],
            [
              32.0690744,
              36.5667263
            ],
            [
              32.0696277,
              36.5671962
            ],
            [
              32.0696807,
              36.5673257
            ],
            [
              32.0700113,
              36.5673328
            ],
            [
              32.070198,
              36.5674227
            ],
            [
              32.0702496,
              36.5677171
            ],
            [
              32.0704175,
              36.567687
            ],
            [
              32.0708562,
              36.5679998
            ],
            [
              32.0708352,
              36.5681509
            ],
            [
              32.0712518,
              36.5677149
            ],
            [
              32.0696722,
              36.566574
            ],
            [
              32.0696909,
              36.5664396
            ],
            [
              32.0699395,
              36.5662528
            ],
            [
              32.070128,
              36.5662152
            ],
            [
              32.0702118,
              36.566311
            ],
            [
              32.0704415,
              36.5663149
            ],
            [
              32.0704178,
              36.5662109
            ],
            [
              32.0705359,
              36.5661446
            ],
            [
              32.0703133,
              36.5656423
            ],
            [
              32.0703782,
              36.5653685
            ],
            [
              32.070562,
              36.5650757
            ],
            [
              32.0710393,
              36.5648694
            ],
            [
              32.0711553,
              36.5645023
            ],
            [
              32.0715984,
              36.5645197
            ],
            [
              32.0715773,
              36.5641923
            ],
            [
              32.0716508,
              36.5638601
            ],
            [
              32.0719286,
              36.5637064
            ],
            [
              32.072122,
              36.5632494
            ],
            [
              32.0719305,
              36.5631644
            ],
            [
              32.071745,
              36.5627848
            ],
            [
              32.0718507,
              36.5624888
            ],
            [
              32.0716897,
              36.5622493
            ],
            [
              32.0713456,
              36.5620049
            ],
            [
              32.0713518,
              36.5617197
            ],
            [
              32.0717857,
              36.561629
            ],
            [
              32.0715725,
              36.5614987
            ],
            [
              32.0710371,
              36.5611245
            ],
            [
              32.0711081,
              36.5609845
            ],
            [
              32.0702516,
              36.5595398
            ],
            [
              32.0696623,
              36.5586206
            ],
            [
              32.0692733,
              36.5582045
            ],
            [
              32.0689984,
              36.5572916
            ],
            [
              32.0691048,
              36.5572307
            ],
            [
              32.0690396,
              36.5569075
            ],
            [
              32.0690635,
              36.5564084
            ],
            [
              32.0694574,
              36.5560777
            ],
            [
              32.0692066,
              36.5555632
            ],
            [
              32.0681285,
              36.555058
            ],
            [
              32.0678264,
              36.5547309
            ],
            [
              32.0677282,
              36.5545858
            ],
            [
              32.0678125,
              36.5538811
            ],
            [
              32.0683001,
              36.5538978
            ],
            [
              32.0683637,
              36.553816
            ],
            [
              32.0682795,
              36.5535275
            ],
            [
              32.0684162,
              36.5532774
            ],
            [
              32.0686749,
              36.5532038
            ],
            [
              32.0688627,
              36.5532586
            ],
            [
              32.0689133,
              36.553215
            ],
            [
              32.0689833,
              36.5532754
            ],
            [
              32.0691236,
              36.5532823
            ],
            [
              32.0692425,
              36.5531552
            ],
            [
              32.0695041,
              36.553069
            ],
            [
              32.0697485,
              36.5529776
            ],
            [
              32.0698521,
              36.5527724
            ],
            [
              32.0698839,
              36.5525141
            ],
            [
              32.0693825,
              36.5524856
            ],
            [
              32.0689204,
              36.5520357
            ],
            [
              32.0688593,
              36.5519254
            ],
            [
              32.0689511,
              36.5517128
            ],
            [
              32.0693845,
              36.5514245
            ],
            [
              32.0694308,
              36.5513272
            ],
            [
              32.0693516,
              36.5512254
            ],
            [
              32.0690437,
              36.5511804
            ],
            [
              32.0687242,
              36.5511558
            ],
            [
              32.0683825,
              36.5514224
            ],
            [
              32.0683958,
              36.551599
            ],
            [
              32.0682143,
              36.5518012
            ],
            [
              32.0681182,
              36.5517336
            ],
            [
              32.0681094,
              36.5515396
            ],
            [
              32.0679556,
              36.5514177
            ],
            [
              32.0678298,
              36.551367
            ],
            [
              32.0676635,
              36.5514221
            ],
            [
              32.0674985,
              36.5515162
            ],
            [
              32.0665752,
              36.5523389
            ],
            [
              32.0665298,
              36.5519911
            ],
            [
              32.0661402,
              36.5518658
            ],
            [
              32.0657537,
              36.5518566
            ],
            [
              32.0658037,
              36.5520947
            ],
            [
              32.0656937,
              36.5523777
            ],
            [
              32.0656263,
              36.5525433
            ],
            [
              32.064937,
              36.5521395
            ],
            [
              32.0652428,
              36.5518511
            ],
            [
              32.065081,
              36.5516398
            ],
            [
              32.0644995,
              36.5513966
            ],
            [
              32.064299,
              36.5513146
            ],
            [
              32.0642713,
              36.5511735
            ],
            [
              32.0644627,
              36.5511459
            ],
            [
              32.0647423,
              36.5507891
            ],
            [
              32.065331,
              36.5502145
            ],
            [
              32.06549,
              36.550015
            ],
            [
              32.0655594,
              36.5498328
            ],
            [
              32.0657772,
              36.5495322
            ],
            [
              32.0657221,
              36.5492604
            ],
            [
              32.0659535,
              36.5491705
            ],
            [
              32.0661075,
              36.5490764
            ],
            [
              32.0660034,
              36.5489994
            ],
            [
              32.0644236,
              36.5491024
            ],
            [
              32.0631966,
              36.5492389
            ],
            [
              32.0632872,
              36.5491109
            ],
            [
              32.0632681,
              36.5489056
            ],
            [
              32.0633017,
              36.5487407
            ],
            [
              32.0631382,
              36.548652
            ],
            [
              32.062919,
              36.5486977
            ],
            [
              32.0628971,
              36.5488241
            ],
            [
              32.0622011,
              36.5488588
            ],
            [
              32.0620882,
              36.5485473
            ],
            [
              32.0621127,
              36.5482176
            ],
            [
              32.0625275,
              36.5483613
            ],
            [
              32.0629317,
              36.5482601
            ],
            [
              32.0631913,
              36.5481864
            ],
            [
              32.0635332,
              36.5480839
            ],
            [
              32.0638514,
              36.5480144
            ],
            [
              32.0651992,
              36.5475154
            ],
            [
              32.065295,
              36.547382
            ],
            [
              32.0654549,
              36.5472032
            ],
            [
              32.0655282,
              36.5470607
            ],
            [
              32.0657354,
              36.5470339
            ],
            [
              32.0660342,
              36.5469822
            ],
            [
              32.0662384,
              36.5470295
            ],
            [
              32.0670282,
              36.5467947
            ],
            [
              32.0677285,
              36.5468832
            ],
            [
              32.0676977,
              36.5467406
            ],
            [
              32.0693318,
              36.5464811
            ],
            [
              32.0691521,
              36.5461724
            ],
            [
              32.0691658,
              36.5458699
            ],
            [
              32.0698995,
              36.5452476
            ],
            [
              32.0700016,
              36.5450664
            ],
            [
              32.071387,
              36.5441303
            ],
            [
              32.0711758,
              36.544044
            ],
            [
              32.0720185,
              36.5415898
            ],
            [
              32.0724397,
              36.541431
            ],
            [
              32.0728832,
              36.5410486
            ],
            [
              32.0731856,
              36.5406246
            ],
            [
              32.0730562,
              36.5403341
            ],
            [
              32.0725134,
              36.5402772
            ],
            [
              32.0725666,
              36.5397874
            ],
            [
              32.0724864,
              36.5395557
            ],
            [
              32.0722843,
              36.5392128
            ],
            [
              32.0719949,
              36.5389549
            ],
            [
              32.0716508,
              36.5387983
            ],
            [
              32.0713663,
              36.5386978
            ],
            [
              32.0715201,
              36.5381229
            ],
            [
              32.0708513,
              36.5375908
            ],
            [
              32.0704951,
              36.5366446
            ],
            [
              32.0695345,
              36.5363386
            ],
            [
              32.0690466,
              36.536773
            ],
            [
              32.0689908,
              36.5368348
            ],
            [
              32.0689696,
              36.5370055
            ],
            [
              32.0688988,
              36.5371135
            ],
            [
              32.0688775,
              36.5371988
            ],
            [
              32.0689483,
              36.5373239
            ],
            [
              32.0686793,
              36.5374149
            ],
            [
              32.0685449,
              36.5375969
            ],
            [
              32.068375,
              36.5377164
            ],
            [
              32.0681768,
              36.5379438
            ],
            [
              32.0680918,
              36.5383533
            ],
            [
              32.0686652,
              36.5384443
            ],
            [
              32.0686369,
              36.5386889
            ],
            [
              32.0686298,
              36.5387514
            ],
            [
              32.0686086,
              36.5388424
            ],
            [
              32.0685802,
              36.5389277
            ],
            [
              32.0673698,
              36.5393031
            ],
            [
              32.0674335,
              36.5397694
            ],
            [
              32.0673628,
              36.539832
            ],
            [
              32.0672778,
              36.5398832
            ],
            [
              32.0671221,
              36.5399287
            ],
            [
              32.0669593,
              36.5399571
            ],
            [
              32.0668036,
              36.5399855
            ],
            [
              32.0665841,
              36.5400026
            ],
            [
              32.0664496,
              36.5400253
            ],
            [
              32.0662939,
              36.5400595
            ],
            [
              32.0661665,
              36.5400936
            ],
            [
              32.0659542,
              36.5401675
            ],
            [
              32.0662444,
              36.5392633
            ],
            [
              32.0660462,
              36.5392178
            ],
            [
              32.066754,
              36.5371476
            ],
            [
              32.0672141,
              36.5368917
            ],
            [
              32.0676609,
              36.5360666
            ],
            [
              32.0675488,
              36.5355263
            ],
            [
              32.0671939,
              36.5346708
            ],
            [
              32.0669697,
              36.5346258
            ],
            [
              32.0664093,
              36.534956
            ],
            [
              32.0665027,
              36.5351361
            ],
            [
              32.0662412,
              36.5351511
            ],
            [
              32.0662412,
              36.5353762
            ],
            [
              32.0660918,
              36.5353162
            ],
            [
              32.0654566,
              36.5351211
            ],
            [
              32.0652138,
              36.5354813
            ],
            [
              32.0648138,
              36.5359343
            ],
            [
              32.063281,
              36.5355873
            ],
            [
              32.0620125,
              36.5350491
            ],
            [
              32.0605806,
              36.535035
            ],
            [
              32.0596719,
              36.5347712
            ],
            [
              32.0596291,
              36.5346834
            ],
            [
              32.0588888,
              36.5352921
            ],
            [
              32.0578595,
              36.534916
            ],
            [
              32.0566538,
              36.5353053
            ],
            [
              32.0564505,
              36.5351815
            ],
            [
              32.0559172,
              36.5349295
            ],
            [
              32.0552605,
              36.5346869
            ],
            [
              32.0545386,
              36.5344484
            ],
            [
              32.0538824,
              36.5342724
            ],
            [
              32.0533362,
              36.5341479
            ],
            [
              32.0528342,
              36.5340493
            ],
            [
              32.0519133,
              36.533922
            ],
            [
              32.051602,
              36.5339122
            ],
            [
              32.0509413,
              36.5336214
            ],
            [
              32.0502574,
              36.5335427
            ],
            [
              32.049935,
              36.5332563
            ],
            [
              32.0489663,
              36.5331716
            ],
            [
              32.0490214,
              36.5328257
            ],
            [
              32.0481167,
              36.5327852
            ],
            [
              32.0481506,
              36.532455
            ],
            [
              32.0476051,
              36.5324504
            ],
            [
              32.0475583,
              36.5327637
            ],
            [
              32.0464836,
              36.5323166
            ],
            [
              32.0464811,
              36.5322347
            ],
            [
              32.0462415,
              36.5322319
            ],
            [
              32.0457698,
              36.531695
            ],
            [
              32.0456672,
              36.5316884
            ],
            [
              32.0448167,
              36.5314685
            ],
            [
              32.044303,
              36.5309424
            ],
            [
              32.04386,
              36.5304955
            ],
            [
              32.0435499,
              36.5306621
            ],
            [
              32.0429057,
              36.5299913
            ],
            [
              32.0423273,
              36.5300099
            ],
            [
              32.0419749,
              36.5297038
            ],
            [
              32.0414434,
              36.5300139
            ],
            [
              32.04141,
              36.5301134
            ],
            [
              32.0411531,
              36.530225
            ],
            [
              32.0410189,
              36.5301384
            ],
            [
              32.0406081,
              36.5302506
            ],
            [
              32.0405009,
              36.5305216
            ],
            [
              32.0401789,
              36.5307756
            ],
            [
              32.0400169,
              36.5310316
            ],
            [
              32.0394959,
              36.5312259
            ],
            [
              32.0392637,
              36.5311043
            ],
            [
              32.0387515,
              36.5315022
            ],
            [
              32.0383888,
              36.5318472
            ],
            [
              32.0381425,
              36.5319685
            ],
            [
              32.0379002,
              36.531988
            ],
            [
              32.0374456,
              36.5321313
            ],
            [
              32.0370726,
              36.5324207
            ],
            [
              32.036796,
              36.5326194
            ],
            [
              32.0365918,
              36.5327283
            ],
            [
              32.0363996,
              36.5327565
            ],
            [
              32.035481,
              36.533251
            ],
            [
              32.0352429,
              36.533463
            ],
            [
              32.0348909,
              36.5336867
            ],
            [
              32.0344779,
              36.5339525
            ],
            [
              32.0340624,
              36.5342385
            ],
            [
              32.0336079,
              36.5344477
            ],
            [
              32.0332619,
              36.5346476
            ],
            [
              32.0326149,
              36.5350168
            ],
            [
              32.0324852,
              36.5351181
            ],
            [
              32.0324198,
              36.5351692
            ]
          ]
        ]
      }
    }
  ]
}